NORAD_CAT_ID,OBJECT_NAME,OBJECT_TYPE,EPOCH,MEAN_MOTION,ECCENTRICITY,INCLINATION,RA_OF_ASC_NODE,ARG_OF_PERICENTER,MEAN_ANOMALY,BSTAR,MEAN_MOTION_DOT,MEAN_MOTION_DDOT,TLE_LINE0,TLE_LINE1,TLE_LINE2,SEMIMAJOR_AXIS,PERIOD,APOGEE,PERIGEE,DECAYED
51870.0,STARLINK-3591,PAYLOAD,2022-12-20 03:05:55,15.08846051,0.000268,53.2155,246.4215,29.2122,330.902,9.6716e-05,1.251e-05,0.0,0 STARLINK-3591,1 51870U 22022U   22354.12911167  .00001251  00000-0  96716-4 0  9995,2 51870  53.2155 246.4215 0002680  29.2122 330.9020 15.08846051 45691,6917.861999999999,95.437,541.581,537.873,0.0
51870.0,STARLINK-3591,PAYLOAD,2022-12-20 17:24:23,15.08842739,0.0002646,53.2153,243.7452,31.3577,328.7573,3.0774e-05,2.01e-06,0.0,0 STARLINK-3591,1 51870U 22022U   22354.72527499  .00000201  00000-0  30774-4 0  9998,2 51870  53.2153 243.7452 0002646  31.3577 328.7573 15.08842739 45789,6917.871999999999,95.437,541.567,537.9069999999998,0.0
51870.0,STARLINK-3591,PAYLOAD,2022-12-21 02:56:43,15.08828625,0.0002651,53.2152,241.9615,29.5632,330.551,-0.00013915,-2.502e-05,0.0,0 STARLINK-3591,1 51870U 22022U   22355.12272829 -.00002502  00000-0 -13915-3 0  9992,2 51870  53.2152 241.9615 0002651  29.5632 330.5510 15.08828625 45843,6917.915,95.438,541.614,537.946,0.0
51870.0,STARLINK-3591,PAYLOAD,2022-12-21 09:18:16,15.08831248,0.0002625,53.2152,240.7728,31.8124,328.3026,-0.00014348,-2.571e-05,0.0,0 STARLINK-3591,1 51870U 22022U   22355.38768793 -.00002571  00000-0 -14348-3 0  9997,2 51870  53.2152 240.7728 0002625  31.8124 328.3026 15.08831248 45884,6917.906999999997,95.438,541.5880000000002,537.956,0.0
51870.0,STARLINK-3591,PAYLOAD,2022-12-22 09:09:04,15.08829405,0.000252,53.2156,236.3128,33.8029,326.3124,-9.6996e-05,-1.831e-05,0.0,0 STARLINK-3591,1 51870U 22022U   22356.38129782 -.00001831  00000-0 -96996-4 0  9995,2 51870  53.2156 236.3128 0002520  33.8029 326.3124 15.08829405 46030,6917.913000000001,95.438,541.521,538.034,0.0
51870.0,STARLINK-3591,PAYLOAD,2022-12-22 18:41:22,15.08828714,0.0002511,53.2155,234.5279,32.5673,327.5474,4.6284e-05,4.48e-06,0.0,0 STARLINK-3591,1 51870U 22022U   22356.77873633  .00000448  00000-0  46284-4 0  9995,2 51870  53.2155 234.5279 0002511  32.5673 327.5474 15.08828714 46096,6917.915,95.438,541.5169999999998,538.043,0.0
51870.0,STARLINK-3591,PAYLOAD,2022-12-23 02:38:18,15.08837201,0.0002554,53.2151,233.041,34.3109,325.8048,3.5482e-05,2.76e-06,0.0,0 STARLINK-3591,1 51870U 22022U   22357.10993366  .00000276  00000-0  35482-4 0  9996,2 51870  53.2151 233.0410 0002554  34.3109 325.8048 15.08837201 46149,6917.889,95.438,541.521,537.987,0.0
51870.0,STARLINK-3591,PAYLOAD,2022-12-23 18:32:10,15.08830284,0.0002603,53.2151,230.0668,33.1976,326.9179,0.00019098,2.752e-05,0.0,0 STARLINK-3591,1 51870U 22022U   22357.77233826  .00002752  00000-0  19098-3 0  9992,2 51870  53.2151 230.0668 0002603  33.1976 326.9179 15.08830284 46247,6917.91,95.438,541.576,537.974,0.0
51870.0,STARLINK-3591,PAYLOAD,2022-12-24 04:04:29,15.08832127,0.0002583999999999,53.2151,228.2822,33.0316,327.0837,0.00014032,1.945e-05,0.0,0 STARLINK-3591,1 51870U 22022U   22358.16978134  .00001945  00000-0  14032-3 0  9990,2 51870  53.2151 228.2822 0002584  33.0316 327.0837 15.08832127 46301,6917.904,95.438,541.557,537.982,0.0
51870.0,STARLINK-3591,PAYLOAD,2022-12-24 08:50:38,15.08836349,0.0002582,53.2151,227.3902,33.0207,327.0946,0.00014788,2.066e-05,0.0,0 STARLINK-3591,1 51870U 22022U   22358.36849918  .00002066  00000-0  14788-3 0  9992,2 51870  53.2151 227.3902 0002582  33.0207 327.0946 15.08836349 46331,6917.892,95.438,541.543,537.97,0.0
51870.0,STARLINK-3591,PAYLOAD,2022-12-24 21:33:42,15.08846032,0.0002666,53.2152,225.0113,33.6391,326.4770000000001,0.00016008,2.261e-05,0.0,0 STARLINK-3591,1 51870U 22022U   22358.89841223  .00002261  00000-0  16008-3 0  9995,2 51870  53.2152 225.0113 0002666  33.6391 326.4770 15.08846032 46411,6917.861999999999,95.437,541.571,537.883,0.0
51870.0,STARLINK-3591,PAYLOAD,2022-12-25 02:19:52,15.08847487,0.0002526,53.2151,224.1182,34.2003,325.9152,7.5832e-05,9.19e-06,0.0,0 STARLINK-3591,1 51870U 22022U   22359.09713235  .00000919  00000-0  75832-4 0  9998,2 51870  53.2151 224.1182 0002526  34.2003 325.9152 15.08847487 46444,6917.858,95.437,541.47,537.975,0.0
51870.0,STARLINK-3591,PAYLOAD,2022-12-25 08:41:25,15.08842683,0.0002532,53.2156,222.9296,32.5892,327.5256,2.4949e-05,1.09e-06,0.0,0 STARLINK-3591,1 51870U 22022U   22359.36209573  .00000109  00000-0  24949-4 0  9997,2 51870  53.2156 222.9296 0002532  32.5892 327.5256 15.08842683 46485,6917.871999999999,95.437,541.489,537.986,0.0
51870.0,STARLINK-3591,PAYLOAD,2022-12-25 18:13:44,15.0883488,0.0002658,53.2147,221.1455,35.0343,325.0823,5.093e-06,-2.07e-06,0.0,0 STARLINK-3591,1 51870U 22022U   22359.75954123 -.00000207  00000-0  50930-5 0  9998,2 51870  53.2147 221.1455 0002658  35.0343 325.0823 15.08834880 46541,6917.896,95.438,541.6,537.922,0.0
51870.0,STARLINK-3591,PAYLOAD,2022-12-25 21:24:31,15.08830441,0.0002709,53.2152,220.5514,32.3212,327.7946,-3.6656e-05,-8.72e-06,0.0,0 STARLINK-3591,1 51870U 22022U   22359.89202551 -.00000872  00000-0 -36656-4 0  9991,2 51870  53.2152 220.5514 0002709  32.3212 327.7946 15.08830441 46564,6917.91,95.438,541.649,537.901,0.0
51870.0,STARLINK-3591,PAYLOAD,2022-12-26 02:10:40,15.08831601,0.0002692,53.2152,219.6588,33.4317,326.6844,-3.4768e-05,-8.42e-06,0.0,0 STARLINK-3591,1 51870U 22022U   22360.09074527 -.00000842  00000-0 -34768-4 0  9994,2 51870  53.2152 219.6588 0002692  33.4317 326.6844 15.08831601 46590,6917.906,95.438,541.633,537.909,0.0
51870.0,STARLINK-3591,PAYLOAD,2022-12-26 16:29:08,15.08838351,0.0002727,53.2151,216.9825,33.9534,326.1632,-2.4153e-05,-6.73e-06,0.0,0 STARLINK-3591,1 51870U 22022U   22360.68690217 -.00000673  00000-0 -24153-4 0  9998,2 51870  53.2151 216.9825 0002727  33.9534 326.1632 15.08838351 46687,6917.885,95.438,541.637,537.864,0.0
51870.0,STARLINK-3591,PAYLOAD,2022-12-27 00:26:03,15.08845972,0.0002788999999999,53.2147,215.4958,35.4397,324.678,-1.12e-05,-4.67e-06,0.0,0 STARLINK-3591,1 51870U 22022U   22361.01809694 -.00000467  00000-0 -11200-4 0  9997,2 51870  53.2147 215.4958 0002789  35.4397 324.6780 15.08845972 46735,6917.861999999999,95.437,541.6569999999998,537.798,0.0
51870.0,STARLINK-3591,PAYLOAD,2022-12-28 01:52:12,15.08848385,0.0002788,53.2147,210.7372,36.9655,323.1529,0.00021699,3.168e-05,0.0,0 STARLINK-3591,1 51870U 22022U   22362.07792582  .00003168  00000-0  21699-3 0  9992,2 51870  53.2147 210.7372 0002788  36.9655 323.1529 15.08848385 46898,6917.855,95.437,541.648,537.7909999999998,0.0
51870.0,STARLINK-3591,PAYLOAD,2022-12-28 16:10:42,15.08828613,0.0002767,53.2155,208.0655,17.8209,342.288,7.9937e-05,9.84e-06,0.0,0 STARLINK-3591,1 51870U 22022U   22362.67410065  .00000984  00000-0  79937-4 0  9993,2 51870  53.2155 208.0655 0002767  17.8209 342.2880 15.08828613 46985,6917.915,95.438,541.694,537.866,0.0
51870.0,STARLINK-3591,PAYLOAD,2022-12-29 12:50:43,15.08834322,0.0002783,53.2147,204.1944,39.4258,320.6936,-5.2648e-05,-1.126e-05,0.0,0 STARLINK-3591,1 51870U 22022U   22363.53522691 -.00001126  00000-0 -52648-4 0  9999,2 51870  53.2147 204.1944 0002783  39.4258 320.6936 15.08834322 47118,6917.898,95.438,541.688,537.837,0.0
51870.0,STARLINK-3591,PAYLOAD,2022-12-29 23:58:25,15.08839293,0.0002816999999999,53.2145,202.1132,38.2123,321.9069,-8.704e-05,-1.674e-05,0.0,0 STARLINK-3591,1 51870U 22022U   22363.99890577 -.00001674  00000-0 -87040-4 0  9992,2 51870  53.2145 202.1132 0002817  38.2123 321.9069 15.08839293 47189,6917.8830000000025,95.438,541.696,537.799,0.0
51870.0,STARLINK-3591,PAYLOAD,2022-12-30 06:19:57,15.08840796,0.0002774999999999,53.2147,200.9238,39.5029,320.6165,-5.2646e-05,-1.126e-05,0.0,0 STARLINK-3591,1 51870U 22022U   22364.26386431 -.00001126  00000-0 -52646-4 0  9998,2 51870  53.2147 200.9238 0002775  39.5029 320.6165 15.08840796 47224,6917.878000000002,95.438,541.663,537.823,0.0
51870.0,STARLINK-3591,PAYLOAD,2022-12-31 12:32:17,15.08842265,0.0002813999999999,53.2145,195.2734,40.4872,319.6329,0.00020302,2.944e-05,0.0,0 STARLINK-3591,1 51870U 22022U   22365.52242381  .00002944  00000-0  20302-3 0  9993,2 51870  53.2145 195.2734 0002814  40.4872 319.6329 15.08842265 47414,6917.873000000001,95.437,541.685,537.7919999999998,0.0
51870.0,STARLINK-3591,PAYLOAD,2022-12-31 18:53:49,15.08845956,0.0002863999999999,53.2138,194.084,40.8964,319.2243,0.00024702,3.646e-05,0.0,0 STARLINK-3591,1 51870U 22022U   22365.78738369  .00003646  00000-0  24702-3 0  9995,2 51870  53.2138 194.0840 0002864  40.8964 319.2243 15.08845956 47457,6917.861999999999,95.437,541.7080000000002,537.746,0.0
51870.0,STARLINK-3591,PAYLOAD,2023-01-01 12:23:04,15.08842515,0.0002951,53.2137,190.813,42.6573,317.4647,0.00011028,1.467e-05,0.0,0 STARLINK-3591,1 51870U 22022U   23001.51602448  .00001467  00000-0  11028-3 0  9998,2 51870  53.2137 190.8130 0002951  42.6573 317.4647 15.08842515 47563,6917.873000000001,95.437,541.779,537.696,0.0
51870.0,STARLINK-3591,PAYLOAD,2023-01-01 18:44:37,15.08841778,0.0002978,53.2137,189.6235,43.3113,316.8113,7.1035e-05,8.42e-06,0.0,0 STARLINK-3591,1 51870U 22022U   23001.78098468  .00000842  00000-0  71035-4 0  9999,2 51870  53.2137 189.6235 0002978  43.3113 316.8113 15.08841778 47608,6917.875,95.437,541.8,537.68,0.0
51870.0,STARLINK-3591,PAYLOAD,2023-01-02 13:49:14,15.08846925,0.0002926,53.2145,186.0545,44.0144,316.108,5.3851e-05,5.69e-06,0.0,0 STARLINK-3591,1 51870U 22022U   23002.57586012  .00000569  00000-0  53851-4 0  9996,2 51870  53.2145 186.0545 0002926  44.0144 316.1080 15.08846925 47725,6917.859,95.437,541.748,537.7,0.0
51870.0,STARLINK-3591,PAYLOAD,2023-01-02 18:35:23,15.08848886,0.0002911,53.2144,185.1621,44.5581,315.5645,6.5746e-05,7.58e-06,0.0,0 STARLINK-3591,1 51870U 22022U   23002.77457729  .00000758  00000-0  65746-4 0  9996,2 51870  53.2144 185.1621 0002911  44.5581 315.5645 15.08848886 47754,6917.853,95.437,541.732,537.7040000000002,0.0
